H1 CPF 01  gfz 2021 11 22 01  8261 terrasarx 
H2 0702601  6201 31698    2021 11 22 00 59 42 2021 11 27 00 00 42   120 1 1  0 0 0
H9
10 0 59544  22302.000000  0    6736814.237   -113735.430   1429956.078
10 0 59544  22422.000000  0    6861866.084   -296537.116    534838.811
10 0 59544  22542.000000  0    6863824.232   -475267.924   -369693.362
10 0 59544  22662.000000  0    6742828.106   -644654.665  -1267722.034
10 0 59544  22782.000000  0    6501276.331   -799614.488  -2143462.186
10 0 59544  22902.000000  0    6143772.501   -935383.600  -2981547.167
10 0 59544  23022.000000  0    5677027.589  -1047638.392  -3767302.846
10 0 59544  23142.000000  0    5109722.023  -1132605.622  -4487005.903
10 0 59544  23262.000000  0    4452331.834  -1187158.772  -5128120.675
10 0 59544  23382.000000  0    3716924.443  -1208899.537  -5679511.582
10 0 59544  23502.000000  0    2916927.676  -1196223.035  -6131627.772
10 0 59544  23622.000000  0    2066878.690  -1148364.333  -6476657.367
10 0 59544  23742.000000  0    1182157.915  -1065425.623  -6708651.418
10 0 59544  23862.000000  0     278712.387   -948385.706  -6823616.265
10 0 59544  23982.000000  0    -627227.372   -799090.107  -6819574.859
10 0 59544  24102.000000  0   -1519432.110   -620222.522  -6696596.819
10 0 59544  24222.000000  0   -2381958.395   -415257.557  -6456797.452
10 0 59544  24342.000000  0   -3199427.004   -188395.818  -6104303.956
10 0 59544  24462.000000  0   -3957291.670     55517.800  -5645192.730
10 0 59544  24582.000000  0   -4642098.110    311091.939  -5087395.490
10 0 59544  24702.000000  0   -5241725.405    572500.474  -4440573.358
10 0 59544  24822.000000  0   -5745608.248    833607.253  -3715961.721
10 0 59544  24942.000000  0   -6144933.856   1088101.977  -2926183.961
10 0 59544  25062.000000  0   -6432808.362   1329643.444  -2085037.418
10 0 59544  25182.000000  0   -6604388.490   1552006.752  -1207254.751
10 0 59544  25302.000000  0   -6656975.599   1749232.261   -308244.025
10 0 59544  25422.000000  0   -6590066.363   1915770.405    596188.351
10 0 59544  25542.000000  0   -6405359.032   2046619.922   1490122.713
10 0 59544  25662.000000  0   -6106716.312   2137456.497   2357815.023
10 0 59544  25782.000000  0   -5700084.022   2184747.566   3183983.255
10 0 59544  25902.000000  0   -5193367.879   2185849.527   3954084.454
10 0 59544  26022.000000  0   -4596271.493   2139085.426   4654575.466
10 0 59544  26142.000000  0   -3920101.566   2043801.890   5273152.089
10 0 59544  26262.000000  0   -3177545.746   1900404.204   5798963.657
10 0 59544  26382.000000  0   -2382426.943   1710369.205   6222800.947
10 0 59544  26502.000000  0   -1549438.462   1476234.634   6537252.330
10 0 59544  26622.000000  0    -693867.682   1201565.647   6736826.390
10 0 59544  26742.000000  0     168685.671    890900.081   6818040.740
10 0 59544  26862.000000  0    1022593.028    549672.931   6779478.722
10 0 59544  26982.000000  0    1852478.801    184121.536   6621812.407
10 0 59544  27102.000000  0    2643495.857   -198827.526   6347792.193
10 0 59544  27222.000000  0    3381591.466   -591688.692   5962203.160
10 0 59544  27342.000000  0    4053759.598   -986561.929   5471786.471
10 0 59544  27462.000000  0    4648274.232  -1375290.176   4885127.346
10 0 59544  27582.000000  0    5154899.976  -1749626.286   4212510.986
10 0 59544  27702.000000  0    5565077.116  -2101405.831   3465747.076
10 0 59544  27822.000000  0    5872075.436  -2422723.516   2657963.975
10 0 59544  27942.000000  0    6071112.114  -2706108.234   1803376.746
10 0 59544  28062.000000  0    6159432.400  -2944691.993    917033.981
10 0 59544  28182.000000  0    6136350.521  -3132369.686     14545.888
10 0 59544  28302.000000  0    6003247.669  -3263944.273   -888198.769
10 0 59544  28422.000000  0    5763528.710  -3335254.223  -1775322.383
10 0 59544  28542.000000  0    5422536.313  -3343278.833  -2631245.790
10 0 59544  28662.000000  0    4987428.795  -3286220.371  -3440967.433
10 0 59544  28782.000000  0    4467022.976  -3163560.724  -4190329.238
10 0 59544  28902.000000  0    3871607.285  -2976092.107  -4866263.638
10 0 59544  29022.000000  0    3212729.096  -2725919.979  -5457016.954
10 0 59544  29142.000000  0    2502964.006  -2416439.829  -5952344.434
10 0 59544  29262.000000  0    1755673.136  -2052290.301  -6343677.676
10 0 59544  29382.000000  0     984750.214  -1639281.400  -6624263.703
10 0 59544  29502.000000  0     204363.825  -1184299.274  -6789270.452
10 0 59544  29622.000000  0    -571299.015   -695191.628  -6835860.535
10 0 59544  29742.000000  0   -1328284.726   -180634.653  -6763234.124
10 0 59544  29862.000000  0   -2053118.646    350017.416  -6572640.947
10 0 59544  29982.000000  0   -2733039.248    886897.910  -6267360.298
10 0 59544  30102.000000  0   -3356218.170   1419806.228  -5852650.959
10 0 59544  30222.000000  0   -3911964.825   1938397.016  -5335671.020
10 0 59544  30342.000000  0   -4390913.086   2432377.921  -4725366.153
10 0 59544  30462.000000  0   -4785184.685   2891712.883  -4032325.175
10 0 59544  30582.000000  0   -5088525.643   3306825.147  -3268605.854
10 0 59544  30702.000000  0   -5296414.562   3668797.713  -2447533.591
10 0 59544  30822.000000  0   -5406138.139   3969566.475  -1583472.753
10 0 59544  30942.000000  0   -5416832.459   4202100.181   -691575.768
10 0 59544  31062.000000  0   -5329487.746   4360562.995    212486.305
10 0 59544  31182.000000  0   -5146915.775   4440455.771   1112806.409
10 0 59544  31302.000000  0   -4873678.853   4438729.788   1993531.040
10 0 59544  31422.000000  0   -4515983.320   4353871.135   2839148.348
10 0 59544  31542.000000  0   -4081540.228   4185954.748   3634769.045
10 0 59544  31662.000000  0   -3579397.164   3936665.309   4366394.537
10 0 59544  31782.000000  0   -3019746.342   3609285.167   5021166.274
10 0 59544  31902.000000  0   -2413712.804   3208649.828   5587592.347
10 0 59544  32022.000000  0   -1773128.154   2741072.680   6055746.604
10 0 59544  32142.000000  0   -1110294.954   2214240.655   6417437.691
10 0 59544  32262.000000  0    -437747.866   1637083.044   6666344.583
10 0 59544  32382.000000  0     231982.710   1019617.778   6798121.037
10 0 59544  32502.000000  0     886603.978    372776.123   6810466.761
10 0 59544  32622.000000  0    1514285.197   -291790.260   6703164.659
10 0 59544  32742.000000  0    2103870.490   -961918.382   6478085.244
10 0 59544  32862.000000  0    2645076.812  -1625155.832   6139156.403
10 0 59544  32982.000000  0    3128675.041  -2268991.616   5692300.258
10 0 59544  33102.000000  0    3546650.414  -2881093.172   5145335.075
10 0 59544  33222.000000  0    3892339.277  -3449544.510   4507844.754
10 0 59544  33342.000000  0    4160540.024  -3963081.819   3791015.985
10 0 59544  33462.000000  0    4347595.467  -4411321.426   3007444.988
10 0 59544  33582.000000  0    4451444.869  -4784974.956   2170916.650
10 0 59544  33702.000000  0    4471643.867  -5076045.796   1296158.900
10 0 59544  33822.000000  0    4409350.834  -5278002.184    398577.723
10 0 59544  33942.000000  0    4267279.929  -5385921.785   -506021.477
10 0 59544  34062.000000  0    4049624.061  -5396605.630  -1401720.238
10 0 59544  34182.000000  0    3761946.648  -5308656.975  -2272776.739
10 0 59544  34302.000000  0    3411046.608  -5122522.948  -3103909.247
10 0 59544  34422.000000  0    3004800.525  -4840498.818  -3880569.196
10 0 59544  34542.000000  0    2551985.336  -4466695.803  -4589196.893
10 0 59544  34662.000000  0    2062086.864  -4006973.135  -5217455.714
10 0 59544  34782.000000  0    1545100.117  -3468836.345  -5754439.326
10 0 59544  34902.000000  0    1011325.838  -2861307.429  -6190850.858
10 0 59544  35022.000000  0     471166.276  -2194768.594  -6519153.586
10 0 59544  35142.000000  0     -65075.436  -1480781.357  -6733690.363
10 0 59544  35262.000000  0    -587387.557   -731885.383  -6830770.880
10 0 59544  35382.000000  0   -1086231.384     38619.100  -6808727.839
10 0 59544  35502.000000  0   -1552711.388    816902.141  -6667941.654
10 0 59544  35622.000000  0   -1978730.190   1588845.884  -6410834.385
10 0 59544  35742.000000  0   -2357125.946   2340294.304  -6041832.477
10 0 59544  35862.000000  0   -2681792.292   3057307.701  -5567299.757
10 0 59544  35982.000000  0   -2947777.722   3726419.354  -4995438.535
10 0 59544  36102.000000  0   -3151363.951   4334889.755  -4336159.663
10 0 59544  36222.000000  0   -3290120.413   4870953.345  -3600920.205
10 0 59544  36342.000000  0   -3362932.455   5324051.008  -2802531.845
10 0 59544  36462.000000  0   -3370004.286   5685045.025  -1954944.666
10 0 59544  36582.000000  0   -3312836.024   5946412.802  -1073005.870
10 0 59544  36702.000000  0   -3194172.575   6102411.328   -172197.122
10 0 59544  36822.000000  0   -3017928.408   6149207.666    731641.173
10 0 59544  36942.000000  0   -2789088.371   6084974.512   1622597.665
10 0 59544  37062.000000  0   -2513583.345   5909942.848   2484981.381
10 0 59544  37182.000000  0   -2198147.278   5626411.352   3303606.713
10 0 59544  37302.000000  0   -1850160.352   5238714.813   4064066.781
10 0 59544  37422.000000  0   -1477481.642   4753152.468   4752990.972
10 0 59544  37542.000000  0   -1088274.469   4177877.959   5358281.670
10 0 59544  37662.000000  0    -690829.056   3522753.464   5869324.776
10 0 59544  37782.000000  0    -293388.310   2799172.253   6277171.736
10 0 59544  37902.000000  0      96021.382   2019853.557   6574689.993
10 0 59544  38022.000000  0     469750.383   1198615.137   6756681.927
10 0 59544  38142.000000  0     820674.791    350125.323   6819969.966
10 0 59544  38262.000000  0    1142330.849   -510358.355   6763447.866
10 0 59544  38382.000000  0    1429033.225  -1367262.685   6588100.059
10 0 59544  38502.000000  0    1675975.620  -2204980.006   6296985.765
10 0 59544  38622.000000  0    1879311.792  -3008152.684   5895189.752
10 0 59544  38742.000000  0    2036215.950  -3761956.774   5389738.618
99
